{"dragon": {"capsule": null, "mass_returned_kg": null, "mass_returned_lbs": null, "flight_time_sec": null, "manifest": null, "water_landing": null, "land_landing": null}, "name": "Iridium NEXT 8", "type": "Satellite", "reused": false, "launch": "5eb87d28ffd86e000604b373", "customers": ["Iridium Communications"], "norad_ids": [43922, 43923, 43924, 43925, 43926, 43927, 43928, 43929, 43930, 43931], "nationalities": ["United States"], "manufacturers": ["Thales Alenia Space"], "mass_kg": 9600, "mass_lbs": 21164.38, "orbit": "PO", "reference_system": "geocentric", "regime": "low-earth", "longitude": null, "semi_major_axis_km": 7155.79, "eccentricity": 0.0002281, "periapsis_km": 776.023, "apoapsis_km": 779.287, "inclination_deg": 86.3979, "period_min": 100.403, "lifespan_years": 15, "epoch": "2022-01-29T11:36:02.000Z", "mean_motion": 14.34221978, "raan": 302.1086, "arg_of_pericenter": 63.2588, "mean_anomaly": 296.8841, "id": "5eb0e4cab6c3bb0006eeb231"}